start=new Date('2022-11-12T00:00:00.000Z').valueOf();
sats=[{"MEAN_ANOMALY":"312.0268","PERIOD":"95.592","ELEMENT_SET_NO":"999","EPHEMERIS_TYPE":"0","CENTER_NAME":"EARTH","RA_OF_ASC_NODE":"263.2791","ECCENTRICITY":"0.00015990","RCS_SIZE":"LARGE","MEAN_ELEMENT_THEORY":"SGP4","TLE_LINE1":"1 47868U 21021J   22315.29068985  .00001164  00000-0  97010-4 0  9992","OBJECT_NAME":"STARLINK-2323","TIME_SYSTEM":"UTC","PERIAPSIS":"546.110","MEAN_MOTION":"15.06398798","BSTAR":"0.00009701000000","FILE":"3651496","NORAD_CAT_ID":"47868","GP_ID":"217433695","DECAY_DATE":null,"INCLINATION":"53.0531","COUNTRY_CODE":"US","EPOCH":"2022-11-11T06:58:35.603040","SEMIMAJOR_AXIS":"6925.352","MEAN_MOTION_DDOT":"0.0000000000000","CLASSIFICATION_TYPE":"U","REF_FRAME":"TEME","OBJECT_ID":"2021-021J","ARG_OF_PERICENTER":"48.0857","OBJECT_TYPE":"PAYLOAD","APOAPSIS":"548.325","SITE":"AFETR","MEAN_MOTION_DOT":"0.00001164","LAUNCH_DATE":"2021-03-14","TLE_LINE2":"2 47868  53.0531 263.2791 0001599  48.0857 312.0268 15.06398798 94009","REV_AT_EPOCH":"9400"},{"TLE_LINE2":"2 47869  53.0547 310.8646 0001912  51.5830 308.5330 15.06382251 93482","REV_AT_EPOCH":"9348","LAUNCH_DATE":"2021-03-14","MEAN_MOTION_DOT":"0.00000065","ARG_OF_PERICENTER":"51.5830","OBJECT_ID":"2021-021K","OBJECT_TYPE":"PAYLOAD","SITE":"AFETR","APOAPSIS":"548.592","SEMIMAJOR_AXIS":"6925.403","MEAN_MOTION_DDOT":"0.0000000000000","EPOCH":"2022-11-11T19:46:55.123104","REF_FRAME":"TEME","CLASSIFICATION_TYPE":"U","NORAD_CAT_ID":"47869","GP_ID":"217490262","COUNTRY_CODE":"US","INCLINATION":"53.0547","DECAY_DATE":null,"PERIAPSIS":"545.944","TIME_SYSTEM":"UTC","MEAN_MOTION":"15.06382251","BSTAR":"0.00002328000000","FILE":"3651775","RCS_SIZE":"LARGE","RA_OF_ASC_NODE":"310.8646","ECCENTRICITY":"0.00019120","OBJECT_NAME":"STARLINK-2324","MEAN_ELEMENT_THEORY":"SGP4","TLE_LINE1":"1 47869U 21021K   22315.82424911  .00000065  00000-0  23280-4 0  9994","ELEMENT_SET_NO":"999","MEAN_ANOMALY":"308.5330","PERIOD":"95.593","EPHEMERIS_TYPE":"0","CENTER_NAME":"EARTH"},{"ARG_OF_PERICENTER":"43.5368","OBJECT_ID":"2021-021L","OBJECT_TYPE":"PAYLOAD","APOAPSIS":"548.557","SITE":"AFETR","EPOCH":"2022-11-11T18:37:14.039616","SEMIMAJOR_AXIS":"6925.324","MEAN_MOTION_DDOT":"0.0000000000000","CLASSIFICATION_TYPE":"U","REF_FRAME":"TEME","TLE_LINE2":"2 47870  53.0543 336.0981 0001975  43.5368 316.5777 15.06408011 92912","REV_AT_EPOCH":"9291","MEAN_MOTION_DOT":"0.00009077","LAUNCH_DATE":"2021-03-14","ECCENTRICITY":"0.00019750","RA_OF_ASC_NODE":"336.0981","RCS_SIZE":"MEDIUM","MEAN_ELEMENT_THEORY":"SGP4","TLE_LINE1":"1 47870U 21021L   22315.77585694  .00009077  00000-0  62732-3 0  9992","OBJECT_NAME":"STARLINK-2326","MEAN_ANOMALY":"316.5777","PERIOD":"95.592","ELEMENT_SET_NO":"999","EPHEMERIS_TYPE":"0","CENTER_NAME":"EARTH","NORAD_CAT_ID":"47870","GP_ID":"217490508","INCLINATION":"53.0543","DECAY_DATE":null,"COUNTRY_CODE":"US","PERIAPSIS":"545.821","MEAN_MOTION":"15.06408011","TIME_SYSTEM":"UTC","BSTAR":"0.00062732000000","FILE":"3651775"},{"OBJECT_TYPE":"PAYLOAD","ARG_OF_PERICENTER":"39.6868","OBJECT_ID":"2021-021M","APOAPSIS":"548.729","SITE":"AFETR","EPOCH":"2022-11-11T19:41:36.403872","MEAN_MOTION_DDOT":"0.0000000000000","SEMIMAJOR_AXIS":"6925.404","CLASSIFICATION_TYPE":"U","REF_FRAME":"TEME","TLE_LINE2":"2 47871  53.0545 310.8933 0002109  39.6868 320.4275 15.06381982 93378","REV_AT_EPOCH":"9337","MEAN_MOTION_DOT":"0.00000471","LAUNCH_DATE":"2021-03-14","ECCENTRICITY":"0.00021090","RA_OF_ASC_NODE":"310.8933","RCS_SIZE":"LARGE","TLE_LINE1":"1 47871U 21021M   22315.82056023  .00000471  00000-0  50539-4 0  9990","MEAN_ELEMENT_THEORY":"SGP4","OBJECT_NAME":"STARLINK-2327","PERIOD":"95.593","MEAN_ANOMALY":"320.4275","ELEMENT_SET_NO":"999","CENTER_NAME":"EARTH","EPHEMERIS_TYPE":"0","GP_ID":"217491264","NORAD_CAT_ID":"47871","INCLINATION":"53.0545","DECAY_DATE":null,"COUNTRY_CODE":"US","PERIAPSIS":"545.808","TIME_SYSTEM":"UTC","MEAN_MOTION":"15.06381982","FILE":"3651775","BSTAR":"0.00005053900000"},{"REF_FRAME":"TEME","CLASSIFICATION_TYPE":"U","MEAN_MOTION_DDOT":"0.0000000000000","SEMIMAJOR_AXIS":"6747.761","EPOCH":"2022-11-11T21:26:39.304608","SITE":"AFETR","APOAPSIS":"374.613","OBJECT_TYPE":"PAYLOAD","ARG_OF_PERICENTER":"309.9883","OBJECT_ID":"2021-021N","LAUNCH_DATE":"2021-03-14","MEAN_MOTION_DOT":"0.00093370","REV_AT_EPOCH":"9497","TLE_LINE2":"2 47872  53.0524 198.5924 0007390 309.9883  50.0482 15.66257593 94973","CENTER_NAME":"EARTH","EPHEMERIS_TYPE":"0","ELEMENT_SET_NO":"999","PERIOD":"91.939","MEAN_ANOMALY":"50.0482","OBJECT_NAME":"STARLINK-2328","MEAN_ELEMENT_THEORY":"SGP4","TLE_LINE1":"1 47872U 21021N   22315.89351047  .00093370  00000-0  88160-3 0  9992","RCS_SIZE":"LARGE","RA_OF_ASC_NODE":"198.5924","ECCENTRICITY":"0.00073900","FILE":"3651775","BSTAR":"0.00088160000000","PERIAPSIS":"364.640","TIME_SYSTEM":"UTC","MEAN_MOTION":"15.66257593","COUNTRY_CODE":"US","INCLINATION":"53.0524","DECAY_DATE":null,"GP_ID":"217491982","NORAD_CAT_ID":"47872"},{"DECAY_DATE":null,"INCLINATION":"53.0559","COUNTRY_CODE":"US","GP_ID":"217433946","NORAD_CAT_ID":"47873","FILE":"3651496","BSTAR":"0.00003414900000","MEAN_MOTION":"15.06408057","PERIAPSIS":"545.768","TIME_SYSTEM":"UTC","MEAN_ELEMENT_THEORY":"SGP4","TLE_LINE1":"1 47873U 21021P   22315.27132946  .00000227  00000-0  34149-4 0  9998","OBJECT_NAME":"STARLINK-2329","ECCENTRICITY":"0.00020510","RA_OF_ASC_NODE":"313.3506","RCS_SIZE":"LARGE","CENTER_NAME":"EARTH","EPHEMERIS_TYPE":"0","PERIOD":"95.592","MEAN_ANOMALY":"304.2891","ELEMENT_SET_NO":"999","REV_AT_EPOCH":"9328","TLE_LINE2":"2 47873  53.0559 313.3506 0002051  55.8292 304.2891 15.06408057 93283","MEAN_MOTION_DOT":"0.00000227","LAUNCH_DATE":"2021-03-14","APOAPSIS":"548.609","SITE":"AFETR","OBJECT_TYPE":"PAYLOAD","OBJECT_ID":"2021-021P","ARG_OF_PERICENTER":"55.8292","CLASSIFICATION_TYPE":"U","REF_FRAME":"TEME","EPOCH":"2022-11-11T06:30:42.865344","MEAN_MOTION_DDOT":"0.0000000000000","SEMIMAJOR_AXIS":"6925.324"},{"TLE_LINE2":"2 47874  53.0526 265.6499 0002145  41.5164 318.5988 15.06387961 94019","REV_AT_EPOCH":"9401","MEAN_MOTION_DOT":"0.00002010","LAUNCH_DATE":"2021-03-14","OBJECT_TYPE":"PAYLOAD","ARG_OF_PERICENTER":"41.5164","OBJECT_ID":"2021-021Q","APOAPSIS":"548.736","SITE":"AFETR","EPOCH":"2022-11-11T21:04:31.789344","MEAN_MOTION_DDOT":"0.0000000000000","SEMIMAJOR_AXIS":"6925.385","CLASSIFICATION_TYPE":"U","REF_FRAME":"TEME","GP_ID":"217491008","NORAD_CAT_ID":"47874","DECAY_DATE":null,"INCLINATION":"53.0526","COUNTRY_CODE":"US","PERIAPSIS":"545.765","TIME_SYSTEM":"UTC","MEAN_MOTION":"15.06387961","BSTAR":"0.00015387000000","FILE":"3651775","ECCENTRICITY":"0.00021450","RA_OF_ASC_NODE":"265.6499","RCS_SIZE":"LARGE","TLE_LINE1":"1 47874U 21021Q   22315.87814571  .00002010  00000-0  15387-3 0  9990","MEAN_ELEMENT_THEORY":"SGP4","OBJECT_NAME":"STARLINK-2330","PERIOD":"95.593","MEAN_ANOMALY":"318.5988","ELEMENT_SET_NO":"999","CENTER_NAME":"EARTH","EPHEMERIS_TYPE":"0"},{"MEAN_ANOMALY":"304.0807","PERIOD":"95.592","ELEMENT_SET_NO":"999","EPHEMERIS_TYPE":"0","CENTER_NAME":"EARTH","RA_OF_ASC_NODE":"320.7174","ECCENTRICITY":"0.00018890","RCS_SIZE":"LARGE","TLE_LINE1":"1 47875U 21021R   22315.86019042  .00013001  00000-0  88996-3 0  9998","MEAN_ELEMENT_THEORY":"SGP4","OBJECT_NAME":"STARLINK-2331","PERIAPSIS":"545.894","MEAN_MOTION":"15.06403712","TIME_SYSTEM":"UTC","FILE":"3651775","BSTAR":"0.00088996000000","NORAD_CAT_ID":"47875","GP_ID":"217491764","INCLINATION":"53.0538","DECAY_DATE":null,"COUNTRY_CODE":"US","EPOCH":"2022-11-11T20:38:40.452288","SEMIMAJOR_AXIS":"6925.337","MEAN_MOTION_DDOT":"0.0000000000000","CLASSIFICATION_TYPE":"U","REF_FRAME":"TEME","OBJECT_ID":"2021-021R","ARG_OF_PERICENTER":"56.0361","OBJECT_TYPE":"PAYLOAD","APOAPSIS":"548.510","SITE":"AFETR","MEAN_MOTION_DOT":"0.00013001","LAUNCH_DATE":"2021-03-14","TLE_LINE2":"2 47875  53.0538 320.7174 0001889  56.0361 304.0807 15.06403712 93292","REV_AT_EPOCH":"9329"},{"APOAPSIS":"548.446","SITE":"AFETR","ARG_OF_PERICENTER":"49.5962","OBJECT_ID":"2021-021S","OBJECT_TYPE":"PAYLOAD","CLASSIFICATION_TYPE":"U","REF_FRAME":"TEME","EPOCH":"2022-11-11T17:11:38.823648","SEMIMAJOR_AXIS":"6925.348","MEAN_MOTION_DDOT":"0.0000000000000","REV_AT_EPOCH":"9322","TLE_LINE2":"2 47876  53.0548 321.3607 0001780  49.5962 310.5182 15.06400063 93223","MEAN_MOTION_DOT":"0.00001726","LAUNCH_DATE":"2021-03-14","TLE_LINE1":"1 47876U 21021S   22315.71642157  .00001726  00000-0  13478-3 0  9996","MEAN_ELEMENT_THEORY":"SGP4","OBJECT_NAME":"STARLINK-2332","RA_OF_ASC_NODE":"321.3607","ECCENTRICITY":"0.00017800","RCS_SIZE":"LARGE","EPHEMERIS_TYPE":"0","CENTER_NAME":"EARTH","MEAN_ANOMALY":"310.5182","PERIOD":"95.592","ELEMENT_SET_NO":"999","INCLINATION":"53.0548","DECAY_DATE":null,"COUNTRY_CODE":"US","NORAD_CAT_ID":"47876","GP_ID":"217491483","BSTAR":"0.00013478000000","FILE":"3651775","MEAN_MOTION":"15.06400063","PERIAPSIS":"545.981","TIME_SYSTEM":"UTC"},{"PERIAPSIS":"546.114","TIME_SYSTEM":"UTC","MEAN_MOTION":"15.06392224","BSTAR":"0.00001677300000","FILE":"3651496","NORAD_CAT_ID":"47877","GP_ID":"217434446","COUNTRY_CODE":"US","INCLINATION":"53.0556","DECAY_DATE":null,"ELEMENT_SET_NO":"999","MEAN_ANOMALY":"297.6305","PERIOD":"95.593","EPHEMERIS_TYPE":"0","CENTER_NAME":"EARTH","RCS_SIZE":"LARGE","RA_OF_ASC_NODE":"323.0883","ECCENTRICITY":"0.00016220","OBJECT_NAME":"STARLINK-2333","TLE_LINE1":"1 47877U 21021T   22315.33308838 -.00000032  00000-0  16773-4 0  9992","MEAN_ELEMENT_THEORY":"SGP4","LAUNCH_DATE":"2021-03-14","MEAN_MOTION_DOT":"-0.00000032","TLE_LINE2":"2 47877  53.0556 323.0883 0001622  62.4849 297.6305 15.06392224 93154","REV_AT_EPOCH":"9315","SEMIMAJOR_AXIS":"6925.372","MEAN_MOTION_DDOT":"0.0000000000000","EPOCH":"2022-11-11T07:59:38.836032","REF_FRAME":"TEME","CLASSIFICATION_TYPE":"U","ARG_OF_PERICENTER":"62.4849","OBJECT_ID":"2021-021T","OBJECT_TYPE":"PAYLOAD","SITE":"AFETR","APOAPSIS":"548.361"}];
